[{"OBJECT_NAME":"KUIPER-00097","OBJECT_ID":"2025-171E","EPOCH":"2026-03-09T11:19:50.774880","MEAN_MOTION":14.79937818,"ECCENTRICITY":4.755e-5,"INCLINATION":51.9006,"RA_OF_ASC_NODE":161.6726,"ARG_OF_PERICENTER":76.0557,"MEAN_ANOMALY":284.0458,"EPHEMERIS_TYPE":0,"CLASSIFICATION_TYPE":"U","NORAD_CAT_ID":65136,"ELEMENT_SET_NO":999,"REV_AT_EPOCH":3281,"BSTAR":0.00077246704,"MEAN_MOTION_DOT":5.673e-5,"MEAN_MOTION_DDOT":0},{"OBJECT_NAME":"NOAA 16 DEB","OBJECT_ID":"2000-055TD","EPOCH":"2026-03-09T09:16:58.552320","MEAN_MOTION":14.75110666,"ECCENTRICITY":0.00244253,"INCLINATION":98.7712,"RA_OF_ASC_NODE":227.1584,"ARG_OF_PERICENTER":251.8519,"MEAN_ANOMALY":108.0027,"EPHEMERIS_TYPE":0,"CLASSIFICATION_TYPE":"U","NORAD_CAT_ID":42409,"ELEMENT_SET_NO":999,"REV_AT_EPOCH":52060,"BSTAR":0.004834186,"MEAN_MOTION_DOT":0.0003285,"MEAN_MOTION_DDOT":0}]
